{
"type": "FeatureCollection",
"name": "Bangunan_Dekat_Jamal",
"crs": { "type": "name", "properties": { "name": "urn:ogc:def:crs:OGC:1.3:CRS84" } },
"features": [
{ "type": "Feature", "properties": { "full_id": "w121525428", "osm_id": "121525428", "osm_type": "way", "building": "yes", "phone": null, "height": null, "architect": null, "addr:suburb": null, "addr:street": null, "addr:province": null, "addr:postcode": null, "addr:place": null, "addr:housenumber": null, "addr:country": null, "addr:city": null, "shop": null, "religion": null, "name": null, "amenity": null, "building:walls": "brick", "building:use": "Restaurant", "building:structure": "confined_masonry", "building:roof": "tile", "building:levels": "1", "Tinggi": 3.0, "Dusun": "Kulon" }, "geometry": { "type": "MultiPolygon", "coordinates": [ [ [ [ 110.3627488, -7.7256 ], [ 110.3628058, -7.7256002 ], [ 110.3628053, -7.7257199 ], [ 110.3626519, -7.7257193 ], [ 110.3626524, -7.7255995 ], [ 110.3627488, -7.7256 ] ] ] ] } },
{ "type": "Feature", "properties": { "full_id": "w121525432", "osm_id": "121525432", "osm_type": "way", "building": "yes", "phone": null, "height": null, "architect": null, "addr:suburb": null, "addr:street": null, "addr:province": null, "addr:postcode": null, "addr:place": null, "addr:housenumber": null, "addr:country": null, "addr:city": null, "shop": null, "religion": null, "name": null, "amenity": null, "building:walls": "brick", "building:use": "Restaurant", "building:structure": "confined_masonry", "building:roof": "tile", "building:levels": "1", "Tinggi": 3.0, "Dusun": "Kulon" }, "geometry": { "type": "MultiPolygon", "coordinates": [ [ [ [ 110.3626519, -7.7257193 ], [ 110.3626514, -7.7258144 ], [ 110.3628048, -7.7258151 ], [ 110.3628053, -7.7257199 ], [ 110.3626519, -7.7257193 ] ] ] ] } },
{ "type": "Feature", "properties": { "full_id": "w363426943", "osm_id": "363426943", "osm_type": "way", "building": "yes", "phone": null, "height": null, "architect": null, "addr:suburb": null, "addr:street": null, "addr:province": null, "addr:postcode": null, "addr:place": null, "addr:housenumber": null, "addr:country": null, "addr:city": null, "shop": null, "religion": null, "name": null, "amenity": null, "building:walls": null, "building:use": null, "building:structure": null, "building:roof": null, "building:levels": null, "Tinggi": 3.0, "Dusun": "Kulon" }, "geometry": { "type": "MultiPolygon", "coordinates": [ [ [ [ 110.3629678, -7.7263597 ], [ 110.3630464, -7.7264051 ], [ 110.3629928, -7.7264961 ], [ 110.3629143, -7.7264508 ], [ 110.3629678, -7.7263597 ] ] ] ] } },
{ "type": "Feature", "properties": { "full_id": "w363427318", "osm_id": "363427318", "osm_type": "way", "building": "yes", "phone": null, "height": null, "architect": null, "addr:suburb": null, "addr:street": null, "addr:province": null, "addr:postcode": null, "addr:place": null, "addr:housenumber": null, "addr:country": null, "addr:city": null, "shop": null, "religion": null, "name": null, "amenity": null, "building:walls": null, "building:use": null, "building:structure": null, "building:roof": null, "building:levels": null, "Tinggi": 3.0, "Dusun": "Kulon" }, "geometry": { "type": "MultiPolygon", "coordinates": [ [ [ [ 110.3629934, -7.7261705 ], [ 110.3630931, -7.7262211 ], [ 110.363022, -7.7263588 ], [ 110.3629223, -7.7263083 ], [ 110.3629934, -7.7261705 ] ] ] ] } },
{ "type": "Feature", "properties": { "full_id": "w363427361", "osm_id": "363427361", "osm_type": "way", "building": "yes", "phone": null, "height": null, "architect": null, "addr:suburb": null, "addr:street": null, "addr:province": null, "addr:postcode": null, "addr:place": null, "addr:housenumber": null, "addr:country": null, "addr:city": null, "shop": null, "religion": null, "name": null, "amenity": null, "building:walls": null, "building:use": null, "building:structure": null, "building:roof": null, "building:levels": null, "Tinggi": 3.0, "Dusun": "Kulon" }, "geometry": { "type": "MultiPolygon", "coordinates": [ [ [ [ 110.363114, -7.7260661 ], [ 110.3629335, -7.726203 ], [ 110.3628953, -7.7261536 ], [ 110.3630758, -7.7260167 ], [ 110.363114, -7.7260661 ] ] ] ] } },
{ "type": "Feature", "properties": { "full_id": "w363428423", "osm_id": "363428423", "osm_type": "way", "building": "yes", "phone": null, "height": null, "architect": null, "addr:suburb": null, "addr:street": null, "addr:province": null, "addr:postcode": null, "addr:place": null, "addr:housenumber": null, "addr:country": null, "addr:city": null, "shop": null, "religion": null, "name": null, "amenity": null, "building:walls": null, "building:use": null, "building:structure": null, "building:roof": null, "building:levels": null, "Tinggi": 3.0, "Dusun": "Kulon" }, "geometry": { "type": "MultiPolygon", "coordinates": [ [ [ [ 110.3627718, -7.7253581 ], [ 110.3627718, -7.7253576 ], [ 110.3628365, -7.7253607 ], [ 110.3628323, -7.7254499 ], [ 110.3628316, -7.7254499 ], [ 110.3628253, -7.7255823 ], [ 110.3627608, -7.7255793 ], [ 110.362767, -7.7254473 ], [ 110.3626515, -7.7254419 ], [ 110.3626558, -7.7253527 ], [ 110.3627718, -7.7253581 ] ] ] ] } },
{ "type": "Feature", "properties": { "full_id": "w363428427", "osm_id": "363428427", "osm_type": "way", "building": "yes", "phone": null, "height": null, "architect": null, "addr:suburb": null, "addr:street": null, "addr:province": null, "addr:postcode": null, "addr:place": null, "addr:housenumber": null, "addr:country": null, "addr:city": null, "shop": null, "religion": null, "name": null, "amenity": null, "building:walls": null, "building:use": null, "building:structure": null, "building:roof": null, "building:levels": null, "Tinggi": 3.0, "Dusun": "Kulon" }, "geometry": { "type": "MultiPolygon", "coordinates": [ [ [ [ 110.3627268, -7.727465 ], [ 110.3627626, -7.7274826 ], [ 110.3627243, -7.7275594 ], [ 110.3626884, -7.7275418 ], [ 110.3627268, -7.727465 ] ] ] ] } },
{ "type": "Feature", "properties": { "full_id": "w363428432", "osm_id": "363428432", "osm_type": "way", "building": "yes", "phone": null, "height": null, "architect": null, "addr:suburb": null, "addr:street": null, "addr:province": null, "addr:postcode": null, "addr:place": null, "addr:housenumber": null, "addr:country": null, "addr:city": null, "shop": null, "religion": null, "name": null, "amenity": null, "building:walls": null, "building:use": null, "building:structure": null, "building:roof": null, "building:levels": null, "Tinggi": 3.0, "Dusun": "Kulon" }, "geometry": { "type": "MultiPolygon", "coordinates": [ [ [ [ 110.3626621, -7.7277537 ], [ 110.3628759, -7.7277012 ], [ 110.3628959, -7.7277812 ], [ 110.3626821, -7.7278336 ], [ 110.3626621, -7.7277537 ] ] ] ] } },
{ "type": "Feature", "properties": { "full_id": "w363428480", "osm_id": "363428480", "osm_type": "way", "building": "yes", "phone": null, "height": null, "architect": null, "addr:suburb": null, "addr:street": null, "addr:province": null, "addr:postcode": null, "addr:place": null, "addr:housenumber": null, "addr:country": null, "addr:city": null, "shop": null, "religion": null, "name": null, "amenity": null, "building:walls": null, "building:use": null, "building:structure": null, "building:roof": null, "building:levels": null, "Tinggi": 3.0, "Dusun": "Kulon" }, "geometry": { "type": "MultiPolygon", "coordinates": [ [ [ [ 110.3625849, -7.7278888 ], [ 110.3626464, -7.7279197 ], [ 110.3625872, -7.7280352 ], [ 110.3625258, -7.7280044 ], [ 110.3625849, -7.7278888 ] ] ] ] } },
{ "type": "Feature", "properties": { "full_id": "w363428508", "osm_id": "363428508", "osm_type": "way", "building": "yes", "phone": null, "height": null, "architect": null, "addr:suburb": null, "addr:street": null, "addr:province": null, "addr:postcode": null, "addr:place": null, "addr:housenumber": null, "addr:country": null, "addr:city": null, "shop": null, "religion": null, "name": null, "amenity": null, "building:walls": null, "building:use": null, "building:structure": null, "building:roof": null, "building:levels": null, "Tinggi": 3.0, "Dusun": "Kulon" }, "geometry": { "type": "MultiPolygon", "coordinates": [ [ [ [ 110.3627005, -7.7277253 ], [ 110.3626875, -7.7276674 ], [ 110.3627993, -7.7276429 ], [ 110.3628123, -7.7277008 ], [ 110.3627005, -7.7277253 ] ] ] ] } },
{ "type": "Feature", "properties": { "full_id": "w363428627", "osm_id": "363428627", "osm_type": "way", "building": "yes", "phone": null, "height": null, "architect": null, "addr:suburb": null, "addr:street": null, "addr:province": null, "addr:postcode": null, "addr:place": null, "addr:housenumber": null, "addr:country": null, "addr:city": null, "shop": null, "religion": null, "name": null, "amenity": null, "building:walls": null, "building:use": null, "building:structure": null, "building:roof": null, "building:levels": null, "Tinggi": 3.0, "Dusun": "Kulon" }, "geometry": { "type": "MultiPolygon", "coordinates": [ [ [ [ 110.3628183, -7.7257638 ], [ 110.3629117, -7.7257617 ], [ 110.362914, -7.7258602 ], [ 110.3628205, -7.7258623 ], [ 110.3628183, -7.7257638 ] ] ] ] } },
{ "type": "Feature", "properties": { "full_id": "w363428651", "osm_id": "363428651", "osm_type": "way", "building": "yes", "phone": null, "height": null, "architect": null, "addr:suburb": null, "addr:street": null, "addr:province": null, "addr:postcode": null, "addr:place": null, "addr:housenumber": null, "addr:country": null, "addr:city": null, "shop": null, "religion": null, "name": null, "amenity": null, "building:walls": null, "building:use": null, "building:structure": null, "building:roof": null, "building:levels": null, "Tinggi": 3.0, "Dusun": "Kulon" }, "geometry": { "type": "MultiPolygon", "coordinates": [ [ [ [ 110.362529, -7.7280615 ], [ 110.362559, -7.7280214 ], [ 110.3626708, -7.7281038 ], [ 110.3626408, -7.7281438 ], [ 110.362529, -7.7280615 ] ] ] ] } },
{ "type": "Feature", "properties": { "full_id": "w363428665", "osm_id": "363428665", "osm_type": "way", "building": "yes", "phone": null, "height": null, "architect": null, "addr:suburb": null, "addr:street": null, "addr:province": null, "addr:postcode": null, "addr:place": null, "addr:housenumber": null, "addr:country": null, "addr:city": null, "shop": null, "religion": null, "name": null, "amenity": null, "building:walls": null, "building:use": null, "building:structure": null, "building:roof": null, "building:levels": null, "Tinggi": 3.0, "Dusun": "Kulon" }, "geometry": { "type": "MultiPolygon", "coordinates": [ [ [ [ 110.3628443, -7.7255533 ], [ 110.3629048, -7.7255592 ], [ 110.3628957, -7.7256509 ], [ 110.3628352, -7.7256451 ], [ 110.3628443, -7.7255533 ] ] ] ] } },
{ "type": "Feature", "properties": { "full_id": "w363428672", "osm_id": "363428672", "osm_type": "way", "building": "yes", "phone": null, "height": null, "architect": null, "addr:suburb": null, "addr:street": null, "addr:province": null, "addr:postcode": null, "addr:place": null, "addr:housenumber": null, "addr:country": null, "addr:city": null, "shop": null, "religion": null, "name": null, "amenity": null, "building:walls": null, "building:use": null, "building:structure": null, "building:roof": null, "building:levels": null, "Tinggi": 3.0, "Dusun": "Kulon" }, "geometry": { "type": "MultiPolygon", "coordinates": [ [ [ [ 110.3627084, -7.7258528 ], [ 110.3627896, -7.7258323 ], [ 110.3628295, -7.7259874 ], [ 110.3627484, -7.726008 ], [ 110.3627084, -7.7258528 ] ] ] ] } },
{ "type": "Feature", "properties": { "full_id": "w363428779", "osm_id": "363428779", "osm_type": "way", "building": "yes", "phone": null, "height": null, "architect": null, "addr:suburb": null, "addr:street": null, "addr:province": null, "addr:postcode": null, "addr:place": null, "addr:housenumber": null, "addr:country": null, "addr:city": null, "shop": null, "religion": null, "name": null, "amenity": null, "building:walls": null, "building:use": null, "building:structure": null, "building:roof": null, "building:levels": null, "Tinggi": 3.0, "Dusun": "Kulon" }, "geometry": { "type": "MultiPolygon", "coordinates": [ [ [ [ 110.3625926, -7.725139 ], [ 110.362611, -7.7250345 ], [ 110.3627409, -7.7250569 ], [ 110.3627225, -7.7251614 ], [ 110.3625926, -7.725139 ] ] ] ] } },
{ "type": "Feature", "properties": { "full_id": "w363428784", "osm_id": "363428784", "osm_type": "way", "building": "yes", "phone": null, "height": null, "architect": null, "addr:suburb": null, "addr:street": null, "addr:province": null, "addr:postcode": null, "addr:place": null, "addr:housenumber": null, "addr:country": null, "addr:city": null, "shop": null, "religion": null, "name": null, "amenity": null, "building:walls": null, "building:use": null, "building:structure": null, "building:roof": null, "building:levels": null, "Tinggi": 3.0, "Dusun": "Kulon" }, "geometry": { "type": "MultiPolygon", "coordinates": [ [ [ [ 110.3626733, -7.7275529 ], [ 110.3627201, -7.7275739 ], [ 110.3626762, -7.7276704 ], [ 110.3626293, -7.7276495 ], [ 110.3626733, -7.7275529 ] ] ] ] } },
{ "type": "Feature", "properties": { "full_id": "w363428834", "osm_id": "363428834", "osm_type": "way", "building": "yes", "phone": null, "height": null, "architect": null, "addr:suburb": null, "addr:street": null, "addr:province": null, "addr:postcode": null, "addr:place": null, "addr:housenumber": null, "addr:country": null, "addr:city": null, "shop": null, "religion": null, "name": null, "amenity": null, "building:walls": null, "building:use": null, "building:structure": null, "building:roof": null, "building:levels": null, "Tinggi": 3.0, "Dusun": "Kulon" }, "geometry": { "type": "MultiPolygon", "coordinates": [ [ [ [ 110.3626534, -7.727704 ], [ 110.3625982, -7.7278319 ], [ 110.3625886, -7.7278278 ], [ 110.3625842, -7.727838 ], [ 110.3624588, -7.7277848 ], [ 110.3624754, -7.7277463 ], [ 110.3625317, -7.7277702 ], [ 110.3625747, -7.7276707 ], [ 110.3626534, -7.727704 ] ] ] ] } },
{ "type": "Feature", "properties": { "full_id": "w363428835", "osm_id": "363428835", "osm_type": "way", "building": "yes", "phone": null, "height": null, "architect": null, "addr:suburb": null, "addr:street": null, "addr:province": null, "addr:postcode": null, "addr:place": null, "addr:housenumber": null, "addr:country": null, "addr:city": null, "shop": null, "religion": null, "name": null, "amenity": null, "building:walls": null, "building:use": null, "building:structure": null, "building:roof": null, "building:levels": null, "Tinggi": 3.0, "Dusun": "Kulon" }, "geometry": { "type": "MultiPolygon", "coordinates": [ [ [ [ 110.3628261, -7.7252085 ], [ 110.3628459, -7.7250871 ], [ 110.3631487, -7.7251357 ], [ 110.3631141, -7.7253468 ], [ 110.3630287, -7.7253331 ], [ 110.3630202, -7.7253852 ], [ 110.3626973, -7.7253333 ], [ 110.3627205, -7.7251915 ], [ 110.3628261, -7.7252085 ] ] ] ] } },
{ "type": "Feature", "properties": { "full_id": "w363428836", "osm_id": "363428836", "osm_type": "way", "building": "yes", "phone": null, "height": null, "architect": null, "addr:suburb": null, "addr:street": null, "addr:province": null, "addr:postcode": null, "addr:place": null, "addr:housenumber": null, "addr:country": null, "addr:city": null, "shop": "convenience", "religion": null, "name": null, "amenity": null, "building:walls": null, "building:use": null, "building:structure": null, "building:roof": null, "building:levels": null, "Tinggi": 3.0, "Dusun": "Kulon" }, "geometry": { "type": "MultiPolygon", "coordinates": [ [ [ [ 110.3626197, -7.7251682 ], [ 110.3627121, -7.7251814 ], [ 110.3626881, -7.7253228 ], [ 110.3626447, -7.7253604 ], [ 110.3626022, -7.7254338 ], [ 110.3625313, -7.7254537 ], [ 110.3624432, -7.7251447 ], [ 110.3625411, -7.7251562 ], [ 110.3626197, -7.7251682 ] ] ] ] } },
{ "type": "Feature", "properties": { "full_id": "w363431270", "osm_id": "363431270", "osm_type": "way", "building": "yes", "phone": null, "height": null, "architect": null, "addr:suburb": null, "addr:street": null, "addr:province": null, "addr:postcode": null, "addr:place": null, "addr:housenumber": null, "addr:country": null, "addr:city": null, "shop": null, "religion": null, "name": null, "amenity": null, "building:walls": null, "building:use": null, "building:structure": null, "building:roof": null, "building:levels": null, "Tinggi": 3.0, "Dusun": "Kulon" }, "geometry": { "type": "MultiPolygon", "coordinates": [ [ [ [ 110.3620516, -7.7264037 ], [ 110.3620612, -7.7263566 ], [ 110.3621364, -7.7263717 ], [ 110.3621267, -7.7264188 ], [ 110.3620516, -7.7264037 ] ] ] ] } },
{ "type": "Feature", "properties": { "full_id": "w363431281", "osm_id": "363431281", "osm_type": "way", "building": "yes", "phone": null, "height": null, "architect": null, "addr:suburb": null, "addr:street": null, "addr:province": null, "addr:postcode": null, "addr:place": null, "addr:housenumber": null, "addr:country": null, "addr:city": null, "shop": null, "religion": null, "name": null, "amenity": null, "building:walls": null, "building:use": null, "building:structure": null, "building:roof": null, "building:levels": null, "Tinggi": 3.0, "Dusun": "Kulon" }, "geometry": { "type": "MultiPolygon", "coordinates": [ [ [ [ 110.3625971, -7.7270679 ], [ 110.3626508, -7.7270656 ], [ 110.3626548, -7.7271554 ], [ 110.3626011, -7.7271577 ], [ 110.3625971, -7.7270679 ] ] ] ] } },
{ "type": "Feature", "properties": { "full_id": "w363431309", "osm_id": "363431309", "osm_type": "way", "building": "yes", "phone": null, "height": null, "architect": null, "addr:suburb": null, "addr:street": null, "addr:province": null, "addr:postcode": null, "addr:place": null, "addr:housenumber": null, "addr:country": null, "addr:city": null, "shop": null, "religion": null, "name": null, "amenity": null, "building:walls": null, "building:use": null, "building:structure": null, "building:roof": null, "building:levels": null, "Tinggi": 3.0, "Dusun": "Kulon" }, "geometry": { "type": "MultiPolygon", "coordinates": [ [ [ [ 110.3622184, -7.7264266 ], [ 110.3623237, -7.7264384 ], [ 110.3623005, -7.7266421 ], [ 110.3621952, -7.7266304 ], [ 110.3622184, -7.7264266 ] ] ] ] } },
{ "type": "Feature", "properties": { "full_id": "w363431315", "osm_id": "363431315", "osm_type": "way", "building": "yes", "phone": null, "height": null, "architect": null, "addr:suburb": null, "addr:street": null, "addr:province": null, "addr:postcode": null, "addr:place": null, "addr:housenumber": null, "addr:country": null, "addr:city": null, "shop": null, "religion": null, "name": null, "amenity": null, "building:walls": null, "building:use": null, "building:structure": null, "building:roof": null, "building:levels": null, "Tinggi": 3.0, "Dusun": "Kulon" }, "geometry": { "type": "MultiPolygon", "coordinates": [ [ [ [ 110.3622015, -7.7258423 ], [ 110.3622517, -7.725839 ], [ 110.3622605, -7.7259704 ], [ 110.3622103, -7.7259737 ], [ 110.3622015, -7.7258423 ] ] ] ] } },
{ "type": "Feature", "properties": { "full_id": "w363431317", "osm_id": "363431317", "osm_type": "way", "building": "yes", "phone": null, "height": null, "architect": null, "addr:suburb": null, "addr:street": null, "addr:province": null, "addr:postcode": null, "addr:place": null, "addr:housenumber": null, "addr:country": null, "addr:city": null, "shop": null, "religion": null, "name": null, "amenity": null, "building:walls": null, "building:use": null, "building:structure": null, "building:roof": null, "building:levels": null, "Tinggi": 3.0, "Dusun": "Kulon" }, "geometry": { "type": "MultiPolygon", "coordinates": [ [ [ [ 110.3625713, -7.7268061 ], [ 110.3626107, -7.7268053 ], [ 110.3626152, -7.727009 ], [ 110.3625758, -7.7270099 ], [ 110.3625713, -7.7268061 ] ] ] ] } },
{ "type": "Feature", "properties": { "full_id": "w363431341", "osm_id": "363431341", "osm_type": "way", "building": "yes", "phone": null, "height": null, "architect": null, "addr:suburb": null, "addr:street": null, "addr:province": null, "addr:postcode": null, "addr:place": null, "addr:housenumber": null, "addr:country": null, "addr:city": null, "shop": null, "religion": null, "name": null, "amenity": null, "building:walls": null, "building:use": null, "building:structure": null, "building:roof": null, "building:levels": null, "Tinggi": 3.0, "Dusun": "Kulon" }, "geometry": { "type": "MultiPolygon", "coordinates": [ [ [ [ 110.3624284, -7.7263787 ], [ 110.3624187, -7.7263396 ], [ 110.3625311, -7.7263121 ], [ 110.3625408, -7.7263513 ], [ 110.3624284, -7.7263787 ] ] ] ] } },
{ "type": "Feature", "properties": { "full_id": "w363431343", "osm_id": "363431343", "osm_type": "way", "building": "yes", "phone": null, "height": null, "architect": null, "addr:suburb": null, "addr:street": null, "addr:province": null, "addr:postcode": null, "addr:place": null, "addr:housenumber": null, "addr:country": null, "addr:city": null, "shop": null, "religion": null, "name": null, "amenity": null, "building:walls": null, "building:use": null, "building:structure": null, "building:roof": null, "building:levels": null, "Tinggi": 3.0, "Dusun": "Kulon" }, "geometry": { "type": "MultiPolygon", "coordinates": [ [ [ [ 110.3619027, -7.7257236 ], [ 110.3619334, -7.7256663 ], [ 110.3620117, -7.7257075 ], [ 110.361981, -7.7257647 ], [ 110.3619027, -7.7257236 ] ] ] ] } },
{ "type": "Feature", "properties": { "full_id": "w363431371", "osm_id": "363431371", "osm_type": "way", "building": "yes", "phone": null, "height": null, "architect": null, "addr:suburb": null, "addr:street": null, "addr:province": null, "addr:postcode": null, "addr:place": null, "addr:housenumber": null, "addr:country": null, "addr:city": null, "shop": null, "religion": null, "name": null, "amenity": null, "building:walls": null, "building:use": null, "building:structure": null, "building:roof": null, "building:levels": null, "Tinggi": 3.0, "Dusun": "Kulon" }, "geometry": { "type": "MultiPolygon", "coordinates": [ [ [ [ 110.3621239, -7.725829 ], [ 110.3621902, -7.725827 ], [ 110.3621942, -7.7259536 ], [ 110.3621279, -7.7259557 ], [ 110.3621239, -7.725829 ] ] ] ] } },
{ "type": "Feature", "properties": { "full_id": "w363431373", "osm_id": "363431373", "osm_type": "way", "building": "yes", "phone": null, "height": null, "architect": null, "addr:suburb": null, "addr:street": null, "addr:province": null, "addr:postcode": null, "addr:place": null, "addr:housenumber": null, "addr:country": null, "addr:city": null, "shop": null, "religion": null, "name": null, "amenity": null, "building:walls": null, "building:use": null, "building:structure": null, "building:roof": null, "building:levels": null, "Tinggi": 3.0, "Dusun": "Kulon" }, "geometry": { "type": "MultiPolygon", "coordinates": [ [ [ [ 110.3626233, -7.7269293 ], [ 110.3626532, -7.7269289 ], [ 110.3626543, -7.7270089 ], [ 110.3626244, -7.7270093 ], [ 110.3626233, -7.7269293 ] ] ] ] } },
{ "type": "Feature", "properties": { "full_id": "w363431377", "osm_id": "363431377", "osm_type": "way", "building": "yes", "phone": null, "height": null, "architect": null, "addr:suburb": null, "addr:street": null, "addr:province": null, "addr:postcode": null, "addr:place": null, "addr:housenumber": null, "addr:country": null, "addr:city": null, "shop": null, "religion": null, "name": null, "amenity": null, "building:walls": null, "building:use": null, "building:structure": null, "building:roof": null, "building:levels": null, "Tinggi": 3.0, "Dusun": "Kulon" }, "geometry": { "type": "MultiPolygon", "coordinates": [ [ [ [ 110.362354, -7.7262162 ], [ 110.3624047, -7.726231 ], [ 110.3623827, -7.7263049 ], [ 110.3623319, -7.7262901 ], [ 110.362354, -7.7262162 ] ] ] ] } },
{ "type": "Feature", "properties": { "full_id": "w363431393", "osm_id": "363431393", "osm_type": "way", "building": "yes", "phone": null, "height": null, "architect": null, "addr:suburb": null, "addr:street": null, "addr:province": null, "addr:postcode": null, "addr:place": null, "addr:housenumber": null, "addr:country": null, "addr:city": null, "shop": null, "religion": null, "name": null, "amenity": null, "building:walls": null, "building:use": null, "building:structure": null, "building:roof": null, "building:levels": null, "Tinggi": 3.0, "Dusun": "Kulon" }, "geometry": { "type": "MultiPolygon", "coordinates": [ [ [ [ 110.3620803, -7.7262608 ], [ 110.3621293, -7.7262697 ], [ 110.3621158, -7.7263425 ], [ 110.3620668, -7.7263335 ], [ 110.3620803, -7.7262608 ] ] ] ] } },
{ "type": "Feature", "properties": { "full_id": "w363431401", "osm_id": "363431401", "osm_type": "way", "building": "yes", "phone": null, "height": null, "architect": null, "addr:suburb": null, "addr:street": null, "addr:province": null, "addr:postcode": null, "addr:place": null, "addr:housenumber": null, "addr:country": null, "addr:city": null, "shop": null, "religion": null, "name": null, "amenity": null, "building:walls": null, "building:use": null, "building:structure": null, "building:roof": null, "building:levels": null, "Tinggi": 3.0, "Dusun": "Kulon" }, "geometry": { "type": "MultiPolygon", "coordinates": [ [ [ [ 110.3624584, -7.7264487 ], [ 110.3624439, -7.7263875 ], [ 110.3625399, -7.7263651 ], [ 110.3625544, -7.7264263 ], [ 110.3624584, -7.7264487 ] ] ] ] } },
{ "type": "Feature", "properties": { "full_id": "w363431403", "osm_id": "363431403", "osm_type": "way", "building": "yes", "phone": null, "height": null, "architect": null, "addr:suburb": null, "addr:street": null, "addr:province": null, "addr:postcode": null, "addr:place": null, "addr:housenumber": null, "addr:country": null, "addr:city": null, "shop": null, "religion": null, "name": null, "amenity": null, "building:walls": null, "building:use": null, "building:structure": null, "building:roof": null, "building:levels": null, "Tinggi": 3.0, "Dusun": "Kulon" }, "geometry": { "type": "MultiPolygon", "coordinates": [ [ [ [ 110.3621296, -7.7257845 ], [ 110.3621239, -7.7256135 ], [ 110.3622693, -7.7256088 ], [ 110.362275, -7.7257798 ], [ 110.3621296, -7.7257845 ] ] ] ] } },
{ "type": "Feature", "properties": { "full_id": "w363431404", "osm_id": "363431404", "osm_type": "way", "building": "yes", "phone": null, "height": null, "architect": null, "addr:suburb": null, "addr:street": null, "addr:province": null, "addr:postcode": null, "addr:place": null, "addr:housenumber": null, "addr:country": null, "addr:city": null, "shop": null, "religion": null, "name": null, "amenity": null, "building:walls": null, "building:use": null, "building:structure": null, "building:roof": null, "building:levels": null, "Tinggi": 3.0, "Dusun": "Kulon" }, "geometry": { "type": "MultiPolygon", "coordinates": [ [ [ [ 110.3625278, -7.726622 ], [ 110.3626349, -7.7266196 ], [ 110.3626389, -7.7267942 ], [ 110.3625318, -7.7267966 ], [ 110.3625278, -7.726622 ] ] ] ] } },
{ "type": "Feature", "properties": { "full_id": "w363431411", "osm_id": "363431411", "osm_type": "way", "building": "yes", "phone": null, "height": null, "architect": null, "addr:suburb": null, "addr:street": null, "addr:province": null, "addr:postcode": null, "addr:place": null, "addr:housenumber": null, "addr:country": null, "addr:city": null, "shop": null, "religion": null, "name": null, "amenity": null, "building:walls": null, "building:use": null, "building:structure": null, "building:roof": null, "building:levels": null, "Tinggi": 3.0, "Dusun": "Kulon" }, "geometry": { "type": "MultiPolygon", "coordinates": [ [ [ [ 110.362535, -7.7275381 ], [ 110.3625459, -7.7274847 ], [ 110.362617, -7.727499 ], [ 110.3626061, -7.7275523 ], [ 110.362535, -7.7275381 ] ] ] ] } },
{ "type": "Feature", "properties": { "full_id": "w363431426", "osm_id": "363431426", "osm_type": "way", "building": "yes", "phone": null, "height": null, "architect": null, "addr:suburb": null, "addr:street": null, "addr:province": null, "addr:postcode": null, "addr:place": null, "addr:housenumber": null, "addr:country": null, "addr:city": null, "shop": null, "religion": null, "name": null, "amenity": null, "building:walls": null, "building:use": null, "building:structure": null, "building:roof": null, "building:levels": null, "Tinggi": 3.0, "Dusun": "Kulon" }, "geometry": { "type": "MultiPolygon", "coordinates": [ [ [ [ 110.3618596, -7.72546 ], [ 110.3618838, -7.7254224 ], [ 110.3619637, -7.7254731 ], [ 110.3619395, -7.7255106 ], [ 110.3618596, -7.72546 ] ] ] ] } },
{ "type": "Feature", "properties": { "full_id": "w363431427", "osm_id": "363431427", "osm_type": "way", "building": "yes", "phone": null, "height": null, "architect": null, "addr:suburb": null, "addr:street": null, "addr:province": null, "addr:postcode": null, "addr:place": null, "addr:housenumber": null, "addr:country": null, "addr:city": null, "shop": null, "religion": null, "name": null, "amenity": null, "building:walls": null, "building:use": null, "building:structure": null, "building:roof": null, "building:levels": null, "Tinggi": 3.0, "Dusun": "Kulon" }, "geometry": { "type": "MultiPolygon", "coordinates": [ [ [ [ 110.362337, -7.726032 ], [ 110.3623959, -7.7260144 ], [ 110.3624524, -7.7261991 ], [ 110.3623935, -7.7262167 ], [ 110.362337, -7.726032 ] ] ] ] } },
{ "type": "Feature", "properties": { "full_id": "w363431434", "osm_id": "363431434", "osm_type": "way", "building": "yes", "phone": null, "height": null, "architect": null, "addr:suburb": null, "addr:street": null, "addr:province": null, "addr:postcode": null, "addr:place": null, "addr:housenumber": null, "addr:country": null, "addr:city": null, "shop": null, "religion": null, "name": null, "amenity": null, "building:walls": null, "building:use": null, "building:structure": null, "building:roof": null, "building:levels": null, "Tinggi": 3.0, "Dusun": "Kulon" }, "geometry": { "type": "MultiPolygon", "coordinates": [ [ [ [ 110.3627097, -7.727011 ], [ 110.3627562, -7.7270059 ], [ 110.3627607, -7.7270462 ], [ 110.3627142, -7.7270513 ], [ 110.3627097, -7.727011 ] ] ] ] } },
{ "type": "Feature", "properties": { "full_id": "w363431440", "osm_id": "363431440", "osm_type": "way", "building": "yes", "phone": null, "height": null, "architect": null, "addr:suburb": null, "addr:street": null, "addr:province": null, "addr:postcode": null, "addr:place": null, "addr:housenumber": null, "addr:country": null, "addr:city": null, "shop": null, "religion": null, "name": null, "amenity": null, "building:walls": null, "building:use": null, "building:structure": null, "building:roof": null, "building:levels": null, "Tinggi": 3.0, "Dusun": "Kulon" }, "geometry": { "type": "MultiPolygon", "coordinates": [ [ [ [ 110.3626468, -7.7272492 ], [ 110.3627357, -7.72725 ], [ 110.3627349, -7.7273339 ], [ 110.362646, -7.7273331 ], [ 110.3626468, -7.7272492 ] ] ] ] } },
{ "type": "Feature", "properties": { "full_id": "w363431441", "osm_id": "363431441", "osm_type": "way", "building": "yes", "phone": null, "height": null, "architect": null, "addr:suburb": null, "addr:street": null, "addr:province": null, "addr:postcode": null, "addr:place": null, "addr:housenumber": null, "addr:country": null, "addr:city": null, "shop": null, "religion": null, "name": null, "amenity": null, "building:walls": null, "building:use": null, "building:structure": null, "building:roof": null, "building:levels": null, "Tinggi": 3.0, "Dusun": "Kulon" }, "geometry": { "type": "MultiPolygon", "coordinates": [ [ [ [ 110.3621373, -7.7262456 ], [ 110.3621992, -7.7262584 ], [ 110.3621834, -7.7263334 ], [ 110.3621215, -7.7263206 ], [ 110.3621373, -7.7262456 ] ] ] ] } },
{ "type": "Feature", "properties": { "full_id": "w363431457", "osm_id": "363431457", "osm_type": "way", "building": "yes", "phone": null, "height": null, "architect": null, "addr:suburb": null, "addr:street": null, "addr:province": null, "addr:postcode": null, "addr:place": null, "addr:housenumber": null, "addr:country": null, "addr:city": null, "shop": null, "religion": null, "name": null, "amenity": null, "building:walls": null, "building:use": null, "building:structure": null, "building:roof": null, "building:levels": null, "Tinggi": 3.0, "Dusun": "Kulon" }, "geometry": { "type": "MultiPolygon", "coordinates": [ [ [ [ 110.3620686, -7.7251049 ], [ 110.3621069, -7.7250893 ], [ 110.3621644, -7.7252278 ], [ 110.3621261, -7.7252434 ], [ 110.3620686, -7.7251049 ] ] ] ] } },
{ "type": "Feature", "properties": { "full_id": "w363431460", "osm_id": "363431460", "osm_type": "way", "building": "yes", "phone": null, "height": null, "architect": null, "addr:suburb": null, "addr:street": null, "addr:province": null, "addr:postcode": null, "addr:place": null, "addr:housenumber": null, "addr:country": null, "addr:city": null, "shop": null, "religion": null, "name": null, "amenity": null, "building:walls": null, "building:use": null, "building:structure": null, "building:roof": null, "building:levels": null, "Tinggi": 3.0, "Dusun": "Kulon" }, "geometry": { "type": "MultiPolygon", "coordinates": [ [ [ [ 110.3624505, -7.727534 ], [ 110.3625521, -7.7275558 ], [ 110.3625354, -7.7276325 ], [ 110.3624337, -7.7276107 ], [ 110.3624505, -7.727534 ] ] ] ] } },
{ "type": "Feature", "properties": { "full_id": "w363431466", "osm_id": "363431466", "osm_type": "way", "building": "yes", "phone": null, "height": null, "architect": null, "addr:suburb": null, "addr:street": null, "addr:province": null, "addr:postcode": null, "addr:place": null, "addr:housenumber": null, "addr:country": null, "addr:city": null, "shop": null, "religion": null, "name": null, "amenity": null, "building:walls": null, "building:use": null, "building:structure": null, "building:roof": null, "building:levels": null, "Tinggi": 3.0, "Dusun": "Kulon" }, "geometry": { "type": "MultiPolygon", "coordinates": [ [ [ [ 110.362673, -7.7269349 ], [ 110.3627221, -7.7269349 ], [ 110.3627221, -7.7270009 ], [ 110.362673, -7.7270009 ], [ 110.362673, -7.7269349 ] ] ] ] } },
{ "type": "Feature", "properties": { "full_id": "w363431484", "osm_id": "363431484", "osm_type": "way", "building": "yes", "phone": null, "height": null, "architect": null, "addr:suburb": null, "addr:street": null, "addr:province": null, "addr:postcode": null, "addr:place": null, "addr:housenumber": null, "addr:country": null, "addr:city": null, "shop": null, "religion": null, "name": null, "amenity": null, "building:walls": null, "building:use": null, "building:structure": null, "building:roof": null, "building:levels": null, "Tinggi": 3.0, "Dusun": "Kulon" }, "geometry": { "type": "MultiPolygon", "coordinates": [ [ [ [ 110.3625831, -7.7270537 ], [ 110.3625818, -7.7270264 ], [ 110.3626928, -7.7270209 ], [ 110.3626942, -7.7270481 ], [ 110.3625831, -7.7270537 ] ] ] ] } },
{ "type": "Feature", "properties": { "full_id": "w363431489", "osm_id": "363431489", "osm_type": "way", "building": "yes", "phone": null, "height": null, "architect": null, "addr:suburb": null, "addr:street": null, "addr:province": null, "addr:postcode": null, "addr:place": null, "addr:housenumber": null, "addr:country": null, "addr:city": null, "shop": null, "religion": null, "name": null, "amenity": null, "building:walls": null, "building:use": null, "building:structure": null, "building:roof": null, "building:levels": null, "Tinggi": 3.0, "Dusun": "Kulon" }, "geometry": { "type": "MultiPolygon", "coordinates": [ [ [ [ 110.3625629, -7.7273901 ], [ 110.3626424, -7.727409 ], [ 110.3626264, -7.7274747 ], [ 110.362547, -7.7274558 ], [ 110.3625629, -7.7273901 ] ] ] ] } },
{ "type": "Feature", "properties": { "full_id": "w363431507", "osm_id": "363431507", "osm_type": "way", "building": "yes", "phone": null, "height": null, "architect": null, "addr:suburb": null, "addr:street": null, "addr:province": null, "addr:postcode": null, "addr:place": null, "addr:housenumber": null, "addr:country": null, "addr:city": null, "shop": null, "religion": null, "name": null, "amenity": null, "building:walls": null, "building:use": null, "building:structure": null, "building:roof": null, "building:levels": null, "Tinggi": 3.0, "Dusun": "Kulon" }, "geometry": { "type": "MultiPolygon", "coordinates": [ [ [ [ 110.3621019, -7.7252557 ], [ 110.3621741, -7.7252698 ], [ 110.362156, -7.7253605 ], [ 110.3620838, -7.7253463 ], [ 110.3621019, -7.7252557 ] ] ] ] } },
{ "type": "Feature", "properties": { "full_id": "w363431510", "osm_id": "363431510", "osm_type": "way", "building": "yes", "phone": null, "height": null, "architect": null, "addr:suburb": null, "addr:street": null, "addr:province": null, "addr:postcode": null, "addr:place": null, "addr:housenumber": null, "addr:country": null, "addr:city": null, "shop": null, "religion": null, "name": null, "amenity": null, "building:walls": null, "building:use": null, "building:structure": null, "building:roof": null, "building:levels": null, "Tinggi": 3.0, "Dusun": "Kulon" }, "geometry": { "type": "MultiPolygon", "coordinates": [ [ [ [ 110.3623285, -7.7264613 ], [ 110.3623995, -7.7264679 ], [ 110.3623865, -7.7266067 ], [ 110.3623155, -7.7266002 ], [ 110.3623285, -7.7264613 ] ] ] ] } },
{ "type": "Feature", "properties": { "full_id": "w363431515", "osm_id": "363431515", "osm_type": "way", "building": "yes", "phone": null, "height": null, "architect": null, "addr:suburb": null, "addr:street": null, "addr:province": null, "addr:postcode": null, "addr:place": null, "addr:housenumber": null, "addr:country": null, "addr:city": null, "shop": null, "religion": null, "name": null, "amenity": null, "building:walls": null, "building:use": null, "building:structure": null, "building:roof": null, "building:levels": null, "Tinggi": 3.0, "Dusun": "Kulon" }, "geometry": { "type": "MultiPolygon", "coordinates": [ [ [ [ 110.3626651, -7.7268873 ], [ 110.3627189, -7.726888 ], [ 110.3627183, -7.7269283 ], [ 110.3626645, -7.7269276 ], [ 110.3626651, -7.7268873 ] ] ] ] } },
{ "type": "Feature", "properties": { "full_id": "w363431522", "osm_id": "363431522", "osm_type": "way", "building": "yes", "phone": null, "height": null, "architect": null, "addr:suburb": null, "addr:street": null, "addr:province": null, "addr:postcode": null, "addr:place": null, "addr:housenumber": null, "addr:country": null, "addr:city": null, "shop": null, "religion": null, "name": null, "amenity": null, "building:walls": null, "building:use": null, "building:structure": null, "building:roof": null, "building:levels": null, "Tinggi": 3.0, "Dusun": "Kulon" }, "geometry": { "type": "MultiPolygon", "coordinates": [ [ [ [ 110.361861, -7.7257973 ], [ 110.3618949, -7.7257322 ], [ 110.361966, -7.7257687 ], [ 110.3619321, -7.7258337 ], [ 110.361861, -7.7257973 ] ] ] ] } },
{ "type": "Feature", "properties": { "full_id": "w363431546", "osm_id": "363431546", "osm_type": "way", "building": "yes", "phone": null, "height": null, "architect": null, "addr:suburb": null, "addr:street": null, "addr:province": null, "addr:postcode": null, "addr:place": null, "addr:housenumber": null, "addr:country": null, "addr:city": null, "shop": null, "religion": null, "name": null, "amenity": null, "building:walls": null, "building:use": null, "building:structure": null, "building:roof": null, "building:levels": null, "Tinggi": 3.0, "Dusun": "Kulon" }, "geometry": { "type": "MultiPolygon", "coordinates": [ [ [ [ 110.3620585, -7.7255281 ], [ 110.3620868, -7.7254552 ], [ 110.3622194, -7.7255059 ], [ 110.3621911, -7.7255787 ], [ 110.3620585, -7.7255281 ] ] ] ] } },
{ "type": "Feature", "properties": { "full_id": "w363431549", "osm_id": "363431549", "osm_type": "way", "building": "yes", "phone": null, "height": null, "architect": null, "addr:suburb": null, "addr:street": null, "addr:province": null, "addr:postcode": null, "addr:place": null, "addr:housenumber": null, "addr:country": null, "addr:city": null, "shop": null, "religion": null, "name": null, "amenity": null, "building:walls": null, "building:use": null, "building:structure": null, "building:roof": null, "building:levels": null, "Tinggi": 3.0, "Dusun": "Kulon" }, "geometry": { "type": "MultiPolygon", "coordinates": [ [ [ [ 110.3624295, -7.7264636 ], [ 110.3625203, -7.7264808 ], [ 110.3624943, -7.7266152 ], [ 110.3624036, -7.7265979 ], [ 110.3624295, -7.7264636 ] ] ] ] } },
{ "type": "Feature", "properties": { "full_id": "w363431551", "osm_id": "363431551", "osm_type": "way", "building": "yes", "phone": null, "height": null, "architect": null, "addr:suburb": null, "addr:street": null, "addr:province": null, "addr:postcode": null, "addr:place": null, "addr:housenumber": null, "addr:country": null, "addr:city": null, "shop": null, "religion": null, "name": null, "amenity": null, "building:walls": null, "building:use": null, "building:structure": null, "building:roof": null, "building:levels": null, "Tinggi": 3.0, "Dusun": "Kulon" }, "geometry": { "type": "MultiPolygon", "coordinates": [ [ [ [ 110.3620497, -7.7258771 ], [ 110.3621063, -7.7259016 ], [ 110.3620488, -7.7260322 ], [ 110.3619922, -7.7260078 ], [ 110.3620497, -7.7258771 ] ] ] ] } },
{ "type": "Feature", "properties": { "full_id": "w363431594", "osm_id": "363431594", "osm_type": "way", "building": "yes", "phone": null, "height": null, "architect": null, "addr:suburb": null, "addr:street": null, "addr:province": null, "addr:postcode": null, "addr:place": null, "addr:housenumber": null, "addr:country": null, "addr:city": null, "shop": null, "religion": null, "name": null, "amenity": null, "building:walls": null, "building:use": null, "building:structure": null, "building:roof": null, "building:levels": null, "Tinggi": 3.0, "Dusun": "Kulon" }, "geometry": { "type": "MultiPolygon", "coordinates": [ [ [ [ 110.3620675, -7.7261222 ], [ 110.3620784, -7.7260625 ], [ 110.3622406, -7.7260916 ], [ 110.3622297, -7.7261513 ], [ 110.3620675, -7.7261222 ] ] ] ] } },
{ "type": "Feature", "properties": { "full_id": "w363431607", "osm_id": "363431607", "osm_type": "way", "building": "yes", "phone": null, "height": null, "architect": null, "addr:suburb": null, "addr:street": null, "addr:province": null, "addr:postcode": null, "addr:place": null, "addr:housenumber": null, "addr:country": null, "addr:city": null, "shop": null, "religion": null, "name": null, "amenity": null, "building:walls": null, "building:use": null, "building:structure": null, "building:roof": null, "building:levels": null, "Tinggi": 3.0, "Dusun": "Kulon" }, "geometry": { "type": "MultiPolygon", "coordinates": [ [ [ [ 110.3619986, -7.7255661 ], [ 110.3620647, -7.7256032 ], [ 110.3620144, -7.7256911 ], [ 110.3619483, -7.7256539 ], [ 110.3619986, -7.7255661 ] ] ] ] } },
{ "type": "Feature", "properties": { "full_id": "w363431609", "osm_id": "363431609", "osm_type": "way", "building": "yes", "phone": null, "height": null, "architect": null, "addr:suburb": null, "addr:street": null, "addr:province": null, "addr:postcode": null, "addr:place": null, "addr:housenumber": null, "addr:country": null, "addr:city": null, "shop": null, "religion": null, "name": null, "amenity": null, "building:walls": null, "building:use": null, "building:structure": null, "building:roof": null, "building:levels": null, "Tinggi": 3.0, "Dusun": "Kulon" }, "geometry": { "type": "MultiPolygon", "coordinates": [ [ [ [ 110.3625205, -7.7264927 ], [ 110.3625905, -7.7264778 ], [ 110.3626165, -7.7265982 ], [ 110.3625465, -7.726613 ], [ 110.3625205, -7.7264927 ] ] ] ] } },
{ "type": "Feature", "properties": { "full_id": "w363431614", "osm_id": "363431614", "osm_type": "way", "building": "yes", "phone": null, "height": null, "architect": null, "addr:suburb": null, "addr:street": null, "addr:province": null, "addr:postcode": null, "addr:place": null, "addr:housenumber": null, "addr:country": null, "addr:city": null, "shop": null, "religion": null, "name": null, "amenity": null, "building:walls": null, "building:use": null, "building:structure": null, "building:roof": null, "building:levels": null, "Tinggi": 3.0, "Dusun": "Kulon" }, "geometry": { "type": "MultiPolygon", "coordinates": [ [ [ [ 110.3619718, -7.7258464 ], [ 110.3620396, -7.7258726 ], [ 110.361998, -7.7259779 ], [ 110.3619303, -7.7259517 ], [ 110.3619718, -7.7258464 ] ] ] ] } },
{ "type": "Feature", "properties": { "full_id": "w363431631", "osm_id": "363431631", "osm_type": "way", "building": "yes", "phone": null, "height": null, "architect": null, "addr:suburb": null, "addr:street": null, "addr:province": null, "addr:postcode": null, "addr:place": null, "addr:housenumber": null, "addr:country": null, "addr:city": null, "shop": null, "religion": null, "name": null, "amenity": null, "building:walls": null, "building:use": null, "building:structure": null, "building:roof": null, "building:levels": null, "Tinggi": 3.0, "Dusun": "Kulon" }, "geometry": { "type": "MultiPolygon", "coordinates": [ [ [ [ 110.3622913, -7.7261977 ], [ 110.3623413, -7.7262113 ], [ 110.3623221, -7.7262807 ], [ 110.3622721, -7.7262671 ], [ 110.3622913, -7.7261977 ] ] ] ] } },
{ "type": "Feature", "properties": { "full_id": "w363431633", "osm_id": "363431633", "osm_type": "way", "building": "yes", "phone": null, "height": null, "architect": null, "addr:suburb": null, "addr:street": null, "addr:province": null, "addr:postcode": null, "addr:place": null, "addr:housenumber": null, "addr:country": null, "addr:city": null, "shop": null, "religion": null, "name": null, "amenity": null, "building:walls": null, "building:use": null, "building:structure": null, "building:roof": null, "building:levels": null, "Tinggi": 3.0, "Dusun": "Kulon" }, "geometry": { "type": "MultiPolygon", "coordinates": [ [ [ [ 110.3619211, -7.7255463 ], [ 110.3619715, -7.7255744 ], [ 110.36189, -7.7257177 ], [ 110.3618396, -7.7256895 ], [ 110.3619211, -7.7255463 ] ] ] ] } },
{ "type": "Feature", "properties": { "full_id": "w363431640", "osm_id": "363431640", "osm_type": "way", "building": "yes", "phone": null, "height": null, "architect": null, "addr:suburb": null, "addr:street": null, "addr:province": null, "addr:postcode": null, "addr:place": null, "addr:housenumber": null, "addr:country": null, "addr:city": null, "shop": null, "religion": null, "name": null, "amenity": null, "building:walls": null, "building:use": null, "building:structure": null, "building:roof": null, "building:levels": null, "Tinggi": 3.0, "Dusun": "Kulon" }, "geometry": { "type": "MultiPolygon", "coordinates": [ [ [ [ 110.3624743, -7.7272309 ], [ 110.3624753, -7.7271807 ], [ 110.3626398, -7.7271839 ], [ 110.3626388, -7.7272341 ], [ 110.3624743, -7.7272309 ] ] ] ] } },
{ "type": "Feature", "properties": { "full_id": "w363431646", "osm_id": "363431646", "osm_type": "way", "building": "yes", "phone": null, "height": null, "architect": null, "addr:suburb": null, "addr:street": null, "addr:province": null, "addr:postcode": null, "addr:place": null, "addr:housenumber": null, "addr:country": null, "addr:city": null, "shop": null, "religion": null, "name": null, "amenity": null, "building:walls": null, "building:use": null, "building:structure": null, "building:roof": null, "building:levels": null, "Tinggi": 3.0, "Dusun": "Kulon" }, "geometry": { "type": "MultiPolygon", "coordinates": [ [ [ [ 110.3623225, -7.7274075 ], [ 110.3623358, -7.7273408 ], [ 110.3624492, -7.727363 ], [ 110.3624359, -7.7274296 ], [ 110.3623225, -7.7274075 ] ] ] ] } },
{ "type": "Feature", "properties": { "full_id": "w363431667", "osm_id": "363431667", "osm_type": "way", "building": "yes", "phone": null, "height": null, "architect": null, "addr:suburb": null, "addr:street": null, "addr:province": null, "addr:postcode": null, "addr:place": null, "addr:housenumber": null, "addr:country": null, "addr:city": null, "shop": null, "religion": null, "name": null, "amenity": null, "building:walls": null, "building:use": null, "building:structure": null, "building:roof": null, "building:levels": null, "Tinggi": 3.0, "Dusun": "Kulon" }, "geometry": { "type": "MultiPolygon", "coordinates": [ [ [ [ 110.3622551, -7.7263897 ], [ 110.3622781, -7.7262938 ], [ 110.3623945, -7.7263213 ], [ 110.3623715, -7.7264171 ], [ 110.3622551, -7.7263897 ] ] ] ] } },
{ "type": "Feature", "properties": { "full_id": "w363431680", "osm_id": "363431680", "osm_type": "way", "building": "yes", "phone": null, "height": null, "architect": null, "addr:suburb": null, "addr:street": null, "addr:province": null, "addr:postcode": null, "addr:place": null, "addr:housenumber": null, "addr:country": null, "addr:city": null, "shop": null, "religion": null, "name": null, "amenity": null, "building:walls": null, "building:use": null, "building:structure": null, "building:roof": null, "building:levels": null, "Tinggi": 3.0, "Dusun": "Kulon" }, "geometry": { "type": "MultiPolygon", "coordinates": [ [ [ [ 110.3626634, -7.7270604 ], [ 110.3627009, -7.7270588 ], [ 110.3627041, -7.7271356 ], [ 110.3626666, -7.7271372 ], [ 110.3626634, -7.7270604 ] ] ] ] } },
{ "type": "Feature", "properties": { "full_id": "w363431681", "osm_id": "363431681", "osm_type": "way", "building": "yes", "phone": null, "height": null, "architect": null, "addr:suburb": null, "addr:street": null, "addr:province": null, "addr:postcode": null, "addr:place": null, "addr:housenumber": null, "addr:country": null, "addr:city": null, "shop": null, "religion": null, "name": null, "amenity": null, "building:walls": null, "building:use": null, "building:structure": null, "building:roof": null, "building:levels": null, "Tinggi": 3.0, "Dusun": "Kulon" }, "geometry": { "type": "MultiPolygon", "coordinates": [ [ [ [ 110.3620283, -7.7261326 ], [ 110.3620843, -7.7261516 ], [ 110.362064, -7.7262104 ], [ 110.362008, -7.7261914 ], [ 110.3620283, -7.7261326 ] ] ] ] } },
{ "type": "Feature", "properties": { "full_id": "w363431710", "osm_id": "363431710", "osm_type": "way", "building": "yes", "phone": null, "height": null, "architect": null, "addr:suburb": null, "addr:street": null, "addr:province": null, "addr:postcode": null, "addr:place": null, "addr:housenumber": null, "addr:country": null, "addr:city": null, "shop": null, "religion": null, "name": null, "amenity": null, "building:walls": null, "building:use": null, "building:structure": null, "building:roof": null, "building:levels": null, "Tinggi": 3.0, "Dusun": "Kulon" }, "geometry": { "type": "MultiPolygon", "coordinates": [ [ [ [ 110.3625629, -7.7272412 ], [ 110.3626366, -7.7272419 ], [ 110.3626358, -7.7273313 ], [ 110.3625621, -7.7273307 ], [ 110.3625629, -7.7272412 ] ] ] ] } },
{ "type": "Feature", "properties": { "full_id": "w363431712", "osm_id": "363431712", "osm_type": "way", "building": "yes", "phone": null, "height": null, "architect": null, "addr:suburb": null, "addr:street": null, "addr:province": null, "addr:postcode": null, "addr:place": null, "addr:housenumber": null, "addr:country": null, "addr:city": null, "shop": null, "religion": null, "name": null, "amenity": null, "building:walls": null, "building:use": null, "building:structure": null, "building:roof": null, "building:levels": null, "Tinggi": 3.0, "Dusun": "Kulon" }, "geometry": { "type": "MultiPolygon", "coordinates": [ [ [ [ 110.3618974, -7.7253083 ], [ 110.3619346, -7.7251638 ], [ 110.3621075, -7.7252074 ], [ 110.3620703, -7.7253519 ], [ 110.3618974, -7.7253083 ] ] ] ] } },
{ "type": "Feature", "properties": { "full_id": "w551591999", "osm_id": "551591999", "osm_type": "way", "building": "yes", "phone": null, "height": null, "architect": null, "addr:suburb": null, "addr:street": null, "addr:province": null, "addr:postcode": null, "addr:place": null, "addr:housenumber": null, "addr:country": null, "addr:city": null, "shop": null, "religion": null, "name": null, "amenity": null, "building:walls": null, "building:use": null, "building:structure": null, "building:roof": null, "building:levels": null, "Tinggi": 3.0, "Dusun": "Kulon" }, "geometry": { "type": "MultiPolygon", "coordinates": [ [ [ [ 110.362787, -7.7275125 ], [ 110.3628749, -7.7274913 ], [ 110.3629042, -7.7276102 ], [ 110.3628163, -7.7276315 ], [ 110.362787, -7.7275125 ] ] ] ] } }
]
}
